start=new Date('2022-05-19T00:00:00.000Z').valueOf();
sats=[{"DECAY_DATE":null,"OBJECT_NAME":"STARLINK-3902","MEAN_MOTION_DDOT":"0.0000000000000","TLE_LINE2":"2 52487  53.2177 202.7190 0001571  10.7251  90.7533 15.73205683  2193","ARG_OF_PERICENTER":"10.7251","RA_OF_ASC_NODE":"202.7190","EPOCH":"2022-05-19T06:00:00.999648","ECCENTRICITY":"0.00015710","MEAN_ANOMALY":"90.7533","COUNTRY_CODE":"US","PERIOD":"91.533","TLE_LINE1":"1 52487U 22049AN  22139.25001157 -.00002660  00000-0 -14532-4 0  9996","EPHEMERIS_TYPE":"0","BSTAR":"-0.00001453200000","INCLINATION":"53.2177","CLASSIFICATION_TYPE":"U","OBJECT_ID":"2022-049AN","APOAPSIS":"350.801","LAUNCH_DATE":"2022-05-06","REF_FRAME":"TEME","SEMIMAJOR_AXIS":"6727.879","GP_ID":"203920517","PERIAPSIS":"348.687","MEAN_MOTION_DOT":"-0.00002660","OBJECT_TYPE":"PAYLOAD","SITE":"AFETR","ELEMENT_SET_NO":"999","MEAN_MOTION":"15.73205683","NORAD_CAT_ID":"52487","TIME_SYSTEM":"UTC","RCS_SIZE":null,"REV_AT_EPOCH":"219","MEAN_ELEMENT_THEORY":"SGP4","FILE":"3452866","CENTER_NAME":"EARTH"},{"RCS_SIZE":null,"TIME_SYSTEM":"UTC","NORAD_CAT_ID":"52488","REV_AT_EPOCH":"219","FILE":"3452884","MEAN_ELEMENT_THEORY":"SGP4","CENTER_NAME":"EARTH","SEMIMAJOR_AXIS":"6727.878","REF_FRAME":"TEME","LAUNCH_DATE":"2022-05-06","APOAPSIS":"351.161","MEAN_MOTION_DOT":"-0.00003169","PERIAPSIS":"348.325","GP_ID":"203920505","SITE":"AFETR","OBJECT_TYPE":"PAYLOAD","MEAN_MOTION":"15.73206069","ELEMENT_SET_NO":"999","PERIOD":"91.533","TLE_LINE1":"1 52488U 22049AP  22139.25001157 -.00003169  00000-0 -18152-4 0  9994","COUNTRY_CODE":"US","MEAN_ANOMALY":"68.8190","EPHEMERIS_TYPE":"0","BSTAR":"-0.00001815200000","OBJECT_ID":"2022-049AP","CLASSIFICATION_TYPE":"U","INCLINATION":"53.2177","OBJECT_NAME":"STARLINK-3892","DECAY_DATE":null,"MEAN_MOTION_DDOT":"0.0000000000000","TLE_LINE2":"2 52488  53.2177 202.7094 0002108  37.0709  68.8190 15.73206069  2198","RA_OF_ASC_NODE":"202.7094","ARG_OF_PERICENTER":"37.0709","ECCENTRICITY":"0.00021080","EPOCH":"2022-05-19T06:00:00.999648"},{"RCS_SIZE":null,"TIME_SYSTEM":"UTC","NORAD_CAT_ID":"52489","REV_AT_EPOCH":"219","FILE":"3452864","MEAN_ELEMENT_THEORY":"SGP4","CENTER_NAME":"EARTH","SEMIMAJOR_AXIS":"6727.878","REF_FRAME":"TEME","APOAPSIS":"350.954","LAUNCH_DATE":"2022-05-06","PERIAPSIS":"348.532","MEAN_MOTION_DOT":"-0.00003296","GP_ID":"203920473","SITE":"AFETR","OBJECT_TYPE":"PAYLOAD","MEAN_MOTION":"15.73206153","ELEMENT_SET_NO":"999","TLE_LINE1":"1 52489U 22049AQ  22139.25001157 -.00003296  00000-0 -19064-4 0  9999","PERIOD":"91.533","COUNTRY_CODE":"US","MEAN_ANOMALY":"80.3387","EPHEMERIS_TYPE":"0","BSTAR":"-0.00001906400000","OBJECT_ID":"2022-049AQ","CLASSIFICATION_TYPE":"U","INCLINATION":"53.2177","OBJECT_NAME":"STARLINK-3923","DECAY_DATE":null,"MEAN_MOTION_DDOT":"0.0000000000000","TLE_LINE2":"2 52489  53.2177 202.7138 0001800  23.6604  80.3387 15.73206153  2192","RA_OF_ASC_NODE":"202.7138","ARG_OF_PERICENTER":"23.6604","ECCENTRICITY":"0.00018000","EPOCH":"2022-05-19T06:00:00.999648"},{"PERIAPSIS":"348.533","MEAN_MOTION_DOT":"-0.00049762","GP_ID":"203908775","SEMIMAJOR_AXIS":"6727.838","REF_FRAME":"TEME","LAUNCH_DATE":"2022-05-06","APOAPSIS":"350.873","MEAN_MOTION":"15.73220182","ELEMENT_SET_NO":"999","SITE":"AFETR","OBJECT_TYPE":"PAYLOAD","REV_AT_EPOCH":"130","RCS_SIZE":null,"TIME_SYSTEM":"UTC","NORAD_CAT_ID":"52490","CENTER_NAME":"EARTH","FILE":"3452356","MEAN_ELEMENT_THEORY":"SGP4","TLE_LINE2":"2 52490  53.2153 204.3515 0001739  30.7720 347.7510 15.73220182  1302","MEAN_MOTION_DDOT":"0.0000000000000","OBJECT_NAME":"STARLINK-3914","DECAY_DATE":null,"ECCENTRICITY":"0.00017390","EPOCH":"2022-05-18T22:00:00.999936","RA_OF_ASC_NODE":"204.3515","ARG_OF_PERICENTER":"30.7720","EPHEMERIS_TYPE":"0","TLE_LINE1":"1 52490U 22049AR  22138.91667824 -.00049762  00000-0 -35191-3 0  9998","PERIOD":"91.532","COUNTRY_CODE":"US","MEAN_ANOMALY":"347.7510","OBJECT_ID":"2022-049AR","CLASSIFICATION_TYPE":"U","INCLINATION":"53.2153","BSTAR":"-0.00035191000000"},{"BSTAR":"-0.00001778200000","INCLINATION":"53.2177","CLASSIFICATION_TYPE":"U","OBJECT_ID":"2022-049AS","MEAN_ANOMALY":"68.4090","COUNTRY_CODE":"US","TLE_LINE1":"1 52491U 22049AS  22139.25001157 -.00003117  00000-0 -17782-4 0  9999","PERIOD":"91.533","EPHEMERIS_TYPE":"0","ARG_OF_PERICENTER":"36.8508","RA_OF_ASC_NODE":"202.7111","EPOCH":"2022-05-19T06:00:00.999648","ECCENTRICITY":"0.00022720","DECAY_DATE":null,"OBJECT_NAME":"STARLINK-3908","TLE_LINE2":"2 52491  53.2177 202.7111 0002272  36.8508  68.4090 15.73206036  2197","MEAN_MOTION_DDOT":"0.0000000000000","MEAN_ELEMENT_THEORY":"SGP4","FILE":"3452884","CENTER_NAME":"EARTH","NORAD_CAT_ID":"52491","TIME_SYSTEM":"UTC","RCS_SIZE":null,"REV_AT_EPOCH":"219","OBJECT_TYPE":"PAYLOAD","SITE":"AFETR","ELEMENT_SET_NO":"999","MEAN_MOTION":"15.73206036","APOAPSIS":"351.272","LAUNCH_DATE":"2022-05-06","REF_FRAME":"TEME","SEMIMAJOR_AXIS":"6727.878","GP_ID":"203920497","PERIAPSIS":"348.214","MEAN_MOTION_DOT":"-0.00003117"},{"CENTER_NAME":"EARTH","FILE":"3452884","MEAN_ELEMENT_THEORY":"SGP4","REV_AT_EPOCH":"219","TIME_SYSTEM":"UTC","RCS_SIZE":null,"NORAD_CAT_ID":"52492","MEAN_MOTION":"15.73107996","ELEMENT_SET_NO":"999","SITE":"AFETR","OBJECT_TYPE":"PAYLOAD","GP_ID":"203920500","MEAN_MOTION_DOT":"-0.00040153","PERIAPSIS":"348.956","REF_FRAME":"TEME","SEMIMAJOR_AXIS":"6728.157","LAUNCH_DATE":"2022-05-06","APOAPSIS":"351.089","CLASSIFICATION_TYPE":"U","OBJECT_ID":"2022-049AT","INCLINATION":"53.2148","BSTAR":"-0.00028415000000","EPHEMERIS_TYPE":"0","COUNTRY_CODE":"US","PERIOD":"91.539","TLE_LINE1":"1 52492U 22049AT  22139.25001157 -.00040153  00000-0 -28415-3 0  9995","MEAN_ANOMALY":"83.7403","ECCENTRICITY":"0.00015850","EPOCH":"2022-05-19T06:00:00.999648","RA_OF_ASC_NODE":"202.6991","ARG_OF_PERICENTER":"24.9408","MEAN_MOTION_DDOT":"0.0000000000000","TLE_LINE2":"2 52492  53.2148 202.6991 0001585  24.9408  83.7403 15.73107996  2197","DECAY_DATE":null,"OBJECT_NAME":"STARLINK-3916"},{"MEAN_MOTION":"15.73252159","ELEMENT_SET_NO":"999","SITE":"AFETR","OBJECT_TYPE":"PAYLOAD","GP_ID":"203908095","PERIAPSIS":"348.596","MEAN_MOTION_DOT":"-0.00113608","REF_FRAME":"TEME","SEMIMAJOR_AXIS":"6727.746","APOAPSIS":"350.627","LAUNCH_DATE":"2022-05-06","CENTER_NAME":"EARTH","FILE":"3452356","MEAN_ELEMENT_THEORY":"SGP4","REV_AT_EPOCH":"130","TIME_SYSTEM":"UTC","RCS_SIZE":null,"NORAD_CAT_ID":"52493","ECCENTRICITY":"0.00015100","EPOCH":"2022-05-18T22:00:00.999936","RA_OF_ASC_NODE":"204.3534","ARG_OF_PERICENTER":"16.0964","MEAN_MOTION_DDOT":"0.0000000000000","TLE_LINE2":"2 52493  53.2154 204.3534 0001510  16.0964   1.7292 15.73252159  1304","DECAY_DATE":null,"OBJECT_NAME":"STARLINK-3883","CLASSIFICATION_TYPE":"U","OBJECT_ID":"2022-049AU","INCLINATION":"53.2154","BSTAR":"-0.00081416000000","EPHEMERIS_TYPE":"0","COUNTRY_CODE":"US","TLE_LINE1":"1 52493U 22049AU  22138.91667824 -.00113608  00000-0 -81416-3 0  9993","PERIOD":"91.530","MEAN_ANOMALY":"1.7292"},{"MEAN_MOTION_DDOT":"0.0000000000000","TLE_LINE2":"2 52494  53.2148 204.3433 0001459 358.4851  23.7303 15.73239434  1304","DECAY_DATE":null,"OBJECT_NAME":"STARLINK-3857","EPOCH":"2022-05-18T22:00:00.999936","ECCENTRICITY":"0.00014590","ARG_OF_PERICENTER":"358.4851","RA_OF_ASC_NODE":"204.3433","EPHEMERIS_TYPE":"0","MEAN_ANOMALY":"23.7303","COUNTRY_CODE":"US","TLE_LINE1":"1 52494U 22049AV  22138.91667824 -.00090066  00000-0 -64309-3 0  9998","PERIOD":"91.531","INCLINATION":"53.2148","CLASSIFICATION_TYPE":"U","OBJECT_ID":"2022-049AV","BSTAR":"-0.00064309000000","GP_ID":"203908722","PERIAPSIS":"348.666","MEAN_MOTION_DOT":"-0.00090066","APOAPSIS":"350.629","LAUNCH_DATE":"2022-05-06","REF_FRAME":"TEME","SEMIMAJOR_AXIS":"6727.783","ELEMENT_SET_NO":"999","MEAN_MOTION":"15.73239434","OBJECT_TYPE":"PAYLOAD","SITE":"AFETR","REV_AT_EPOCH":"130","NORAD_CAT_ID":"52494","TIME_SYSTEM":"UTC","RCS_SIZE":null,"CENTER_NAME":"EARTH","MEAN_ELEMENT_THEORY":"SGP4","FILE":"3452356"},{"EPHEMERIS_TYPE":"0","COUNTRY_CODE":"US","TLE_LINE1":"1 52495U 22049AW  22139.25001157 -.00003009  00000-0 -17013-4 0  9990","PERIOD":"91.533","MEAN_ANOMALY":"78.2019","CLASSIFICATION_TYPE":"U","OBJECT_ID":"2022-049AW","INCLINATION":"53.2177","BSTAR":"-0.00001701300000","MEAN_MOTION_DDOT":"0.0000000000000","TLE_LINE2":"2 52495  53.2177 202.7058 0002077  29.5788  78.2019 15.73205992  2193","DECAY_DATE":null,"OBJECT_NAME":"STARLINK-3905","ECCENTRICITY":"0.00020770","EPOCH":"2022-05-19T06:00:00.999648","RA_OF_ASC_NODE":"202.7058","ARG_OF_PERICENTER":"29.5788","REV_AT_EPOCH":"219","TIME_SYSTEM":"UTC","RCS_SIZE":null,"NORAD_CAT_ID":"52495","CENTER_NAME":"EARTH","FILE":"3452864","MEAN_ELEMENT_THEORY":"SGP4","GP_ID":"203920979","MEAN_MOTION_DOT":"-0.00003009","PERIAPSIS":"348.346","REF_FRAME":"TEME","SEMIMAJOR_AXIS":"6727.878","APOAPSIS":"351.140","LAUNCH_DATE":"2022-05-06","MEAN_MOTION":"15.73205992","ELEMENT_SET_NO":"999","SITE":"AFETR","OBJECT_TYPE":"PAYLOAD"},{"REF_FRAME":"TEME","SEMIMAJOR_AXIS":"6676.876","APOAPSIS":"306.763","LAUNCH_DATE":"2022-05-06","GP_ID":"203920496","MEAN_MOTION_DOT":"0.00173322","PERIAPSIS":"290.720","SITE":"AFETR","OBJECT_TYPE":"PAYLOAD","MEAN_MOTION":"15.91265907","ELEMENT_SET_NO":"999","TIME_SYSTEM":"UTC","RCS_SIZE":null,"NORAD_CAT_ID":"52496","REV_AT_EPOCH":"204","FILE":"3452884","MEAN_ELEMENT_THEORY":"SGP4","CENTER_NAME":"EARTH","DECAY_DATE":null,"OBJECT_NAME":"STARLINK-3871","MEAN_MOTION_DDOT":"0.0000221870000","TLE_LINE2":"2 52496  53.2082 201.9623 0012014 326.5333 140.0429 15.91265907  2045","RA_OF_ASC_NODE":"201.9623","ARG_OF_PERICENTER":"326.5333","ECCENTRICITY":"0.00120140","EPOCH":"2022-05-19T06:00:00.999648","COUNTRY_CODE":"US","PERIOD":"90.494","TLE_LINE1":"1 52496U 22049AX  22139.25001157  .00173322  22187-4  53644-3 0  9998","MEAN_ANOMALY":"140.0429","EPHEMERIS_TYPE":"0","BSTAR":"0.00053644000000","CLASSIFICATION_TYPE":"U","OBJECT_ID":"2022-049AX","INCLINATION":"53.2082"}];
